CCSDS_OMM_VERS = 2.0
CREATION_DATE  = 
ORIGINATOR     = 

OBJECT_NAME    = SL-3 R/B
OBJECT_ID      = 1988-032B
CENTER_NAME    = EARTH
REF_FRAME      = TEME
TIME_SYSTEM    = UTC
MEAN_ELEMENT_THEORY = SGP/SGP4

EPOCH          = 2026-04-01T04:20:06.958176
MEAN_MOTION    = 15.20158738
ECCENTRICITY   = .0026702
INCLINATION    = 97.5214
RA_OF_ASC_NODE = 74.3599
ARG_OF_PERICENTER = 151.9595
MEAN_ANOMALY   = 208.3085

EPHEMERIS_TYPE = 0
CLASSIFICATION_TYPE = U
NORAD_CAT_ID   = 19046
ELEMENT_SET_NO = 999
REV_AT_EPOCH   = 5552
BSTAR          = .24961E-3
MEAN_MOTION_DOT = .5381E-4
MEAN_MOTION_DDOT = 0

CCSDS_OMM_VERS = 2.0
CREATION_DATE  = 
ORIGINATOR     = 

OBJECT_NAME    = SL-16 R/B
OBJECT_ID      = 1988-039B
CENTER_NAME    = EARTH
REF_FRAME      = TEME
TIME_SYSTEM    = UTC
MEAN_ELEMENT_THEORY = SGP/SGP4

EPOCH          = 2026-04-01T04:13:28.000128
MEAN_MOTION    = 14.19620187
ECCENTRICITY   = .0023755
INCLINATION    = 71.0172
RA_OF_ASC_NODE = 20.9995
ARG_OF_PERICENTER = 302.1893
MEAN_ANOMALY   = 57.6928

EPHEMERIS_TYPE = 0
CLASSIFICATION_TYPE = U
NORAD_CAT_ID   = 19120
ELEMENT_SET_NO = 999
REV_AT_EPOCH   = 96157
BSTAR          = .39803E-4
MEAN_MOTION_DOT = .36E-6
MEAN_MOTION_DDOT = 0

CCSDS_OMM_VERS = 2.0
CREATION_DATE  = 
ORIGINATOR     = 

OBJECT_NAME    = COSMOS 1953
OBJECT_ID      = 1988-050A
CENTER_NAME    = EARTH
REF_FRAME      = TEME
TIME_SYSTEM    = UTC
MEAN_ELEMENT_THEORY = SGP/SGP4

EPOCH          = 2026-04-01T04:59:56.132448
MEAN_MOTION    = 15.28873562
ECCENTRICITY   = .0012139
INCLINATION    = 82.5070
RA_OF_ASC_NODE = 135.5931
ARG_OF_PERICENTER = 52.4869
MEAN_ANOMALY   = 307.7472

EPHEMERIS_TYPE = 0
CLASSIFICATION_TYPE = U
NORAD_CAT_ID   = 19210
ELEMENT_SET_NO = 999
REV_AT_EPOCH   = 4122
BSTAR          = .24576E-3
MEAN_MOTION_DOT = .694E-4
MEAN_MOTION_DDOT = 0

CCSDS_OMM_VERS = 2.0
CREATION_DATE  = 
ORIGINATOR     = 

OBJECT_NAME    = SL-8 R/B
OBJECT_ID      = 1988-053B
CENTER_NAME    = EARTH
REF_FRAME      = TEME
TIME_SYSTEM    = UTC
MEAN_ELEMENT_THEORY = SGP/SGP4

EPOCH          = 2026-04-01T02:45:37.078272
MEAN_MOTION    = 14.38931847
ECCENTRICITY   = .0021409
INCLINATION    = 74.0462
RA_OF_ASC_NODE = 71.1255
ARG_OF_PERICENTER = 247.4387
MEAN_ANOMALY   = 184.6317

EPHEMERIS_TYPE = 0
CLASSIFICATION_TYPE = U
NORAD_CAT_ID   = 19257
ELEMENT_SET_NO = 999
REV_AT_EPOCH   = 97982
BSTAR          = .13245E-3
MEAN_MOTION_DOT = .383E-5
MEAN_MOTION_DDOT = 0

CCSDS_OMM_VERS = 2.0
CREATION_DATE  = 
ORIGINATOR     = 

OBJECT_NAME    = COSMOS 1975
OBJECT_ID      = 1988-093A
CENTER_NAME    = EARTH
REF_FRAME      = TEME
TIME_SYSTEM    = UTC
MEAN_ELEMENT_THEORY = SGP/SGP4

EPOCH          = 2026-04-01T04:24:27.639072
MEAN_MOTION    = 15.28384195
ECCENTRICITY   = .0013403
INCLINATION    = 82.5154
RA_OF_ASC_NODE = 95.0934
ARG_OF_PERICENTER = 92.3030
MEAN_ANOMALY   = 267.9744

EPHEMERIS_TYPE = 0
CLASSIFICATION_TYPE = U
NORAD_CAT_ID   = 19573
ELEMENT_SET_NO = 999
REV_AT_EPOCH   = 2284
BSTAR          = .24478E-3
MEAN_MOTION_DOT = .6814E-4
MEAN_MOTION_DDOT = 0

CCSDS_OMM_VERS = 2.0
CREATION_DATE  = 
ORIGINATOR     = 

OBJECT_NAME    = SL-14 R/B
OBJECT_ID      = 1988-093B
CENTER_NAME    = EARTH
REF_FRAME      = TEME
TIME_SYSTEM    = UTC
MEAN_ELEMENT_THEORY = SGP/SGP4

EPOCH          = 2026-04-01T05:50:53.750688
MEAN_MOTION    = 14.85683361
ECCENTRICITY   = .0019816
INCLINATION    = 82.5343
RA_OF_ASC_NODE = 20.8756
ARG_OF_PERICENTER = 327.4381
MEAN_ANOMALY   = 193.7289

EPHEMERIS_TYPE = 0
CLASSIFICATION_TYPE = U
NORAD_CAT_ID   = 19574
ELEMENT_SET_NO = 999
REV_AT_EPOCH   = 436
BSTAR          = .6616E-4
MEAN_MOTION_DOT = .599E-5
MEAN_MOTION_DDOT = 0

CCSDS_OMM_VERS = 2.0
CREATION_DATE  = 
ORIGINATOR     = 

OBJECT_NAME    = SL-16 R/B
OBJECT_ID      = 1988-102B
CENTER_NAME    = EARTH
REF_FRAME      = TEME
TIME_SYSTEM    = UTC
MEAN_ELEMENT_THEORY = SGP/SGP4

EPOCH          = 2026-04-01T03:43:02.356896
MEAN_MOTION    = 14.16153752
ECCENTRICITY   = .0015253
INCLINATION    = 70.9969
RA_OF_ASC_NODE = 104.2270
ARG_OF_PERICENTER = 328.4588
MEAN_ANOMALY   = 31.5619

EPHEMERIS_TYPE = 0
CLASSIFICATION_TYPE = U
NORAD_CAT_ID   = 19650
ELEMENT_SET_NO = 999
REV_AT_EPOCH   = 93007
BSTAR          = .66896E-4
MEAN_MOTION_DOT = .85E-6
MEAN_MOTION_DDOT = 0

CCSDS_OMM_VERS = 2.0
CREATION_DATE  = 
ORIGINATOR     = 

OBJECT_NAME    = INTERCOSMOS 24
OBJECT_ID      = 1989-080A
CENTER_NAME    = EARTH
REF_FRAME      = TEME
TIME_SYSTEM    = UTC
MEAN_ELEMENT_THEORY = SGP/SGP4

EPOCH          = 2026-03-31T23:08:25.202976
MEAN_MOTION    = 12.59586187
ECCENTRICITY   = .11869237
INCLINATION    = 82.6014
RA_OF_ASC_NODE = 89.8945
ARG_OF_PERICENTER = 241.0735
MEAN_ANOMALY   = 106.6319

EPHEMERIS_TYPE = 0
CLASSIFICATION_TYPE = U
NORAD_CAT_ID   = 20261
ELEMENT_SET_NO = 999
REV_AT_EPOCH   = 66960
BSTAR          = .17157676E-3
MEAN_MOTION_DOT = .581E-5
MEAN_MOTION_DDOT = 0

CCSDS_OMM_VERS = 2.0
CREATION_DATE  = 
ORIGINATOR     = 

OBJECT_NAME    = SL-14 R/B
OBJECT_ID      = 1989-080C
CENTER_NAME    = EARTH
REF_FRAME      = TEME
TIME_SYSTEM    = UTC
MEAN_ELEMENT_THEORY = SGP/SGP4

EPOCH          = 2026-04-01T04:49:18.783840
MEAN_MOTION    = 12.50515076
ECCENTRICITY   = .1230907
INCLINATION    = 82.5950
RA_OF_ASC_NODE = 158.7413
ARG_OF_PERICENTER = 133.3200
MEAN_ANOMALY   = 237.7407

EPHEMERIS_TYPE = 0
CLASSIFICATION_TYPE = U
NORAD_CAT_ID   = 20262
ELEMENT_SET_NO = 999
REV_AT_EPOCH   = 66296
BSTAR          = .11835E-3
MEAN_MOTION_DOT = .423E-5
MEAN_MOTION_DDOT = 0

CCSDS_OMM_VERS = 2.0
CREATION_DATE  = 
ORIGINATOR     = 

OBJECT_NAME    = DELTA 1 R/B
OBJECT_ID      = 1989-089B
CENTER_NAME    = EARTH
REF_FRAME      = TEME
TIME_SYSTEM    = UTC
MEAN_ELEMENT_THEORY = SGP/SGP4

EPOCH          = 2026-04-01T04:13:04.717056
MEAN_MOTION    = 14.50681654
ECCENTRICITY   = .0070333
INCLINATION    = 97.0688
RA_OF_ASC_NODE = 295.0347
ARG_OF_PERICENTER = 52.3133
MEAN_ANOMALY   = 308.4415

EPHEMERIS_TYPE = 0
CLASSIFICATION_TYPE = U
NORAD_CAT_ID   = 20323
ELEMENT_SET_NO = 999
REV_AT_EPOCH   = 89899
BSTAR          = .10365E-3
MEAN_MOTION_DOT = .385E-5
MEAN_MOTION_DDOT = 0

CCSDS_OMM_VERS = 2.0
CREATION_DATE  = 
ORIGINATOR     = 

OBJECT_NAME    = ARIANE 40 R/B
OBJECT_ID      = 1990-005H
CENTER_NAME    = EARTH
REF_FRAME      = TEME
TIME_SYSTEM    = UTC
MEAN_ELEMENT_THEORY = SGP/SGP4

EPOCH          = 2026-04-01T04:32:57.699744
MEAN_MOTION    = 14.39885236
ECCENTRICITY   = .0011135
INCLINATION    = 98.3037
RA_OF_ASC_NODE = 151.1754
ARG_OF_PERICENTER = 133.2837
MEAN_ANOMALY   = 226.9282

EPHEMERIS_TYPE = 0
CLASSIFICATION_TYPE = U
NORAD_CAT_ID   = 20443
ELEMENT_SET_NO = 999
REV_AT_EPOCH   = 89604
BSTAR          = .1078E-3
MEAN_MOTION_DOT = .297E-5
MEAN_MOTION_DDOT = 0

CCSDS_OMM_VERS = 2.0
CREATION_DATE  = 
ORIGINATOR     = 

OBJECT_NAME    = DELTA 2 R/B(1)
OBJECT_ID      = 1990-008B
CENTER_NAME    = EARTH
REF_FRAME      = TEME
TIME_SYSTEM    = UTC
MEAN_ELEMENT_THEORY = SGP/SGP4

EPOCH          = 2026-04-01T04:41:03.475104
MEAN_MOTION    = 15.59028049
ECCENTRICITY   = .0076892
INCLINATION    = 35.6042
RA_OF_ASC_NODE = 26.8269
ARG_OF_PERICENTER = 110.1591
MEAN_ANOMALY   = 250.7437

EPHEMERIS_TYPE = 0
CLASSIFICATION_TYPE = U
NORAD_CAT_ID   = 20453
ELEMENT_SET_NO = 999
REV_AT_EPOCH   = 92964
BSTAR          = .75462E-3
MEAN_MOTION_DOT = .70637E-3
MEAN_MOTION_DDOT = 0

